[{"OBJECT_NAME":"STARLINK-11162 [DTC]","OBJECT_ID":"2024-118L","EPOCH":"2026-03-09T15:57:45.289728","MEAN_MOTION":15.69691205,"ECCENTRICITY":0.00013864,"INCLINATION":53.1582,"RA_OF_ASC_NODE":221.075,"ARG_OF_PERICENTER":98.3408,"MEAN_ANOMALY":261.7767,"EPHEMERIS_TYPE":0,"CLASSIFICATION_TYPE":"U","NORAD_CAT_ID":60123,"ELEMENT_SET_NO":999,"REV_AT_EPOCH":9799,"BSTAR":0.0001619053,"MEAN_MOTION_DOT":0.00019055,"MEAN_MOTION_DDOT":0},{"OBJECT_NAME":"CZ-2C R\/B","OBJECT_ID":"2021-039E","EPOCH":"2026-03-09T09:27:45.017856","MEAN_MOTION":15.64132714,"ECCENTRICITY":0.00310654,"INCLINATION":34.9801,"RA_OF_ASC_NODE":125.6229,"ARG_OF_PERICENTER":235.3635,"MEAN_ANOMALY":124.4161,"EPHEMERIS_TYPE":0,"CLASSIFICATION_TYPE":"U","NORAD_CAT_ID":48427,"ELEMENT_SET_NO":999,"REV_AT_EPOCH":26989,"BSTAR":0.00058987326,"MEAN_MOTION_DOT":0.00059804,"MEAN_MOTION_DDOT":0}]
